{
  "type": "FeatureCollection",
  "features": [
    {
      "type": "Feature",
      "properties": {
        "norad_id": 43823,
        "name": "GEO-KOMPSAT-2A",
        "group": "weather",
        "lat": 0.01767382315648869,
        "lon": 159.3726720846245,
        "alt_km": 35786.64988777207,
        "timestamp": "2025-12-11T20:41:14.731016+00:00",
        "meta_object_name": "GEO-KOMPSAT-2A",
        "meta_object_id": "2018-100A",
        "meta_epoch": "2025-12-11T12:48:47.553408",
        "meta_mean_motion": 1.00269165,
        "meta_eccentricity": 7.11e-06,
        "meta_inclination": 0.0432,
        "meta_ra_of_asc_node": 144.3131,
        "meta_arg_of_pericenter": 330.9389,
        "meta_mean_anomaly": 285.6913,
        "meta_ephemeris_type": 0,
        "meta_classification_type": "U",
        "meta_norad_cat_id": 43823,
        "meta_element_set_no": 999,
        "meta_rev_at_epoch": 2574,
        "meta_bstar": 0,
        "meta_mean_motion_dot": -3.37e-06,
        "meta_mean_motion_ddot": 0,
        "tle_line1": "1 43823U 18100A   25345.53388372 -.00000337  00000+0  00000+0 0  9990",
        "tle_line2": "2 43823   0.0432 144.3131 0000071 330.9389 285.6913  1.00269165 25743"
      },
      "geometry": {
        "type": "Point",
        "coordinates": [
          159.3726720846245,
          0.01767382315648869
        ]
      }
    },
    {
      "type": "Feature",
      "properties": {
        "norad_id": 44387,
        "name": "METEOR-M2 2",
        "group": "weather",
        "lat": -16.755764235544355,
        "lon": 142.87660667552308,
        "alt_km": 815.1302690691364,
        "timestamp": "2025-12-11T20:41:14.731026+00:00",
        "meta_object_name": "METEOR-M2 2",
        "meta_object_id": "2019-038A",
        "meta_epoch": "2025-12-11T14:42:29.338848",
        "meta_mean_motion": 14.24290532,
        "meta_eccentricity": 0.00011854,
        "meta_inclination": 98.8974,
        "meta_ra_of_asc_node": 325.3277,
        "meta_arg_of_pericenter": 149.1429,
        "meta_mean_anomaly": 210.9819,
        "meta_ephemeris_type": 0,
        "meta_classification_type": "U",
        "meta_norad_cat_id": 44387,
        "meta_element_set_no": 999,
        "meta_rev_at_epoch": 33459,
        "meta_bstar": 0.0001141674,
        "meta_mean_motion_dot": 2.18e-06,
        "meta_mean_motion_ddot": 0,
        "tle_line1": "1 44387U 19038A   25345.61283957  .00000218  00000+0  11417-3 0  9994",
        "tle_line2": "2 44387  98.8974 325.3277 0001185 149.1429 210.9819 14.24290532334593"
      },
      "geometry": {
        "type": "Point",
        "coordinates": [
          142.87660667552308,
          -16.755764235544355
        ]
      }
    },
    {
      "type": "Feature",
      "properties": {
        "norad_id": 47719,
        "name": "ARKTIKA-M 1",
        "group": "weather",
        "lat": 61.91959393781078,
        "lon": -167.18089128840157,
        "alt_km": 37703.67265461559,
        "timestamp": "2025-12-11T20:41:14.731054+00:00",
        "meta_object_name": "ARKTIKA-M 1",
        "meta_object_id": "2021-016A",
        "meta_epoch": "2025-12-09T14:03:23.859648",
        "meta_mean_motion": 2.00631311,
        "meta_eccentricity": 0.7202538,
        "meta_inclination": 63.1769,
        "meta_ra_of_asc_node": 84.4506,
        "meta_arg_of_pericenter": 269.1116,
        "meta_mean_anomaly": 15.6235,
        "meta_ephemeris_type": 0,
        "meta_classification_type": "U",
        "meta_norad_cat_id": 47719,
        "meta_element_set_no": 999,
        "meta_rev_at_epoch": 3498,
        "meta_bstar": 0,
        "meta_mean_motion_dot": -6.1e-07,
        "meta_mean_motion_ddot": 0,
        "tle_line1": "1 47719U 21016A   25343.58569282 -.00000061  00000+0  00000+0 0  9996",
        "tle_line2": "2 47719  63.1769  84.4506 7202538 269.1116  15.6235  2.00631311 34985"
      },
      "geometry": {
        "type": "Point",
        "coordinates": [
          -167.18089128840157,
          61.91959393781078
        ]
      }
    },
    {
      "type": "Feature",
      "properties": {
        "norad_id": 49008,
        "name": "FENGYUN 3E",
        "group": "weather",
        "lat": 9.710779316720295,
        "lon": 167.90320255698384,
        "alt_km": 827.4264062083921,
        "timestamp": "2025-12-11T20:41:14.731066+00:00",
        "meta_object_name": "FENGYUN 3E",
        "meta_object_id": "2021-062A",
        "meta_epoch": "2025-12-11T14:48:55.060416",
        "meta_mean_motion": 14.1988068,
        "meta_eccentricity": 5.708e-05,
        "meta_inclination": 98.7477,
        "meta_ra_of_asc_node": 346.1516,
        "meta_arg_of_pericenter": 275.7591,
        "meta_mean_anomaly": 84.352,
        "meta_ephemeris_type": 0,
        "meta_classification_type": "U",
        "meta_norad_cat_id": 49008,
        "meta_element_set_no": 999,
        "meta_rev_at_epoch": 22996,
        "meta_bstar": 0.00016156819,
        "meta_mean_motion_dot": 2.99e-06,
        "meta_mean_motion_ddot": 0,
        "tle_line1": "1 49008U 21062A   25345.61730394  .00000299  00000+0  16157-3 0  9996",
        "tle_line2": "2 49008  98.7477 346.1516 0000570 275.7591  84.3520 14.19880680229964"
      },
      "geometry": {
        "type": "Point",
        "coordinates": [
          167.90320255698384,
          9.710779316720295
        ]
      }
    },
    {
      "type": "Feature",
      "properties": {
        "norad_id": 51850,
        "name": "GOES 18",
        "group": "weather",
        "lat": -0.0012823297511539219,
        "lon": -105.88354459749557,
        "alt_km": 35784.31882928104,
        "timestamp": "2025-12-11T20:41:14.731078+00:00",
        "meta_object_name": "GOES 18",
        "meta_object_id": "2022-021A",
        "meta_epoch": "2025-12-11T14:34:08.986080",
        "meta_mean_motion": 1.00272159,
        "meta_eccentricity": 6.925e-05,
        "meta_inclination": 0.0026,
        "meta_ra_of_asc_node": 244.5041,
        "meta_arg_of_pericenter": 65.7024,
        "meta_mean_anomaly": 211.8956,
        "meta_ephemeris_type": 0,
        "meta_classification_type": "U",
        "meta_norad_cat_id": 51850,
        "meta_element_set_no": 999,
        "meta_rev_at_epoch": 471,
        "meta_bstar": 0,
        "meta_mean_motion_dot": 1.04e-06,
        "meta_mean_motion_ddot": 0,
        "tle_line1": "1 51850U 22021A   25345.60704845  .00000104  00000+0  00000+0 0  9992",
        "tle_line2": "2 51850   0.0026 244.5041 0000692  65.7024 211.8956  1.00272159  4711"
      },
      "geometry": {
        "type": "Point",
        "coordinates": [
          -105.88354459749557,
          -0.0012823297511539219
        ]
      }
    },
    {
      "type": "Feature",
      "properties": {
        "norad_id": 54234,
        "name": "NOAA 21 (JPSS-2)",
        "group": "weather",
        "lat": 2.248703397726515,
        "lon": 102.52742398406178,
        "alt_km": 830.7903093202249,
        "timestamp": "2025-12-11T20:41:14.731089+00:00",
        "meta_object_name": "NOAA 21 (JPSS-2)",
        "meta_object_id": "2022-150A",
        "meta_epoch": "2025-12-11T13:05:12.881472",
        "meta_mean_motion": 14.19523801,
        "meta_eccentricity": 0.00022595,
        "meta_inclination": 98.746,
        "meta_ra_of_asc_node": 281.8684,
        "meta_arg_of_pericenter": 40.3576,
        "meta_mean_anomaly": 319.7768,
        "meta_ephemeris_type": 0,
        "meta_classification_type": "U",
        "meta_norad_cat_id": 54234,
        "meta_element_set_no": 999,
        "meta_rev_at_epoch": 15992,
        "meta_bstar": 0.00010671248,
        "meta_mean_motion_dot": 1.81e-06,
        "meta_mean_motion_ddot": 0,
        "tle_line1": "1 54234U 22150A   25345.54528798  .00000181  00000+0  10671-3 0  9992",
        "tle_line2": "2 54234  98.7460 281.8684 0002259  40.3576 319.7768 14.19523801159925"
      },
      "geometry": {
        "type": "Point",
        "coordinates": [
          102.52742398406178,
          2.248703397726515
        ]
      }
    },
    {
      "type": "Feature",
      "properties": {
        "norad_id": 54743,
        "name": "METEOSAT-12 (MTG-I1)",
        "group": "weather",
        "lat": 0.10371262500552356,
        "lon": 30.893709021903547,
        "alt_km": 35791.93093356708,
        "timestamp": "2025-12-11T20:41:14.731100+00:00",
        "meta_object_name": "METEOSAT-12 (MTG-I1)",
        "meta_object_id": "2022-170C",
        "meta_epoch": "2025-12-11T13:30:37.569312",
        "meta_mean_motion": 1.0026869,
        "meta_eccentricity": 0.00017924,
        "meta_inclination": 0.6856,
        "meta_ra_of_asc_node": 23.4138,
        "meta_arg_of_pericenter": 236.1938,
        "meta_mean_anomaly": 23.3294,
        "meta_ephemeris_type": 0,
        "meta_classification_type": "U",
        "meta_norad_cat_id": 54743,
        "meta_element_set_no": 999,
        "meta_rev_at_epoch": 1109,
        "meta_bstar": 0,
        "meta_mean_motion_dot": 0,
        "meta_mean_motion_ddot": 0,
        "tle_line1": "1 54743U 22170C   25345.56293483  .00000000  00000+0  00000+0 0  9992",
        "tle_line2": "2 54743   0.6856  23.4138 0001792 236.1938  23.3294  1.00268690 11098"
      },
      "geometry": {
        "type": "Point",
        "coordinates": [
          30.893709021903547,
          0.10371262500552356
        ]
      }
    }
  ]
}